0 COSMOS 2251 DEB
1 34792U 93036AAV 13281.77021354  .00001205  00000-0  42617-3 0  7146
2 34792 074.0273 144.2965 0018316 233.2848 247.3611 14.35605249235711
0 COSMOS 2251 DEB
1 34792U 93036AAV 13286.02714492  .00001472  00000-0  51851-3 0  7169
2 34792 074.0265 136.4826 0018154 224.6233 287.8849 14.35620792236323
0 COSMOS 2251 DEB
1 34792U 93036AAV 13288.05078853  .00002337  00000-0  81784-3 0  7178
2 34792 074.0264 132.7679 0018088 220.6200 306.3641 14.35628944236619
0 COSMOS 2251 DEB
1 34792U 93036AAV 13290.32858381  .00001931  00000-0  67726-3 0  7183
2 34792 074.0266 128.5866 0018002 216.0705 198.4567 14.35638400236948
0 COSMOS 2251 DEB
1 34792U 93036AAV 13292.35170471  .00002087  00000-0  73116-3 0  7199
2 34792 074.0268 124.8729 0017914 211.7248 214.7159 14.35644617237231
0 COSMOS 2251 DEB
1 34792U 93036AAV 13294.50470715  .00002083  00000-0  72957-3 0  7202
2 34792 074.0270 120.9204 0017838 207.3947 182.0014 14.35653173237549
